{
    "links": {
        "self": "http://www.neowsapp.com/rest/v1/neo/3580665?api_key=iIulBulltgU6a56xZRHN4H3l9WmuAYTsLGpBGhQ2"
    },
    "id": "3580665",
    "neo_reference_id": "3580665",
    "name": "(2011 SE191)",
    "designation": "2011 SE191",
    "nasa_jpl_url": "http://ssd.jpl.nasa.gov/sbdb.cgi?sstr=3580665",
    "absolute_magnitude_h": 25.0,
    "estimated_diameter": {
        "kilometers": {
            "estimated_diameter_min": 0.02658,
            "estimated_diameter_max": 0.0594346868
        },
        "meters": {
            "estimated_diameter_min": 26.58,
            "estimated_diameter_max": 59.4346868419
        },
        "miles": {
            "estimated_diameter_min": 0.0165160412,
            "estimated_diameter_max": 0.0369309908
        },
        "feet": {
            "estimated_diameter_min": 87.2047272,
            "estimated_diameter_max": 194.9956979785
        }
    },
    "is_potentially_hazardous_asteroid": false,
    "close_approach_data": [
        {
            "close_approach_date": "2011-09-23",
            "close_approach_date_full": "2011-Sep-23 02:17",
            "epoch_date_close_approach": 1316744220000,
            "relative_velocity": {
                "kilometers_per_second": "14.3276779539",
                "kilometers_per_hour": "51579.6406341552",
                "miles_per_hour": "32049.5828151505"
            },
            "miss_distance": {
                "astronomical": "0.0196527604",
                "lunar": "7.6449237956",
                "kilometers": "2940011.095460348",
                "miles": "1826838.1831068824"
            },
            "orbiting_body": "Earth"
        }
    ],
    "orbital_data": {
        "orbit_id": "8",
        "orbit_determination_date": "2017-04-06 08:52:35",
        "first_observation_date": "2011-09-30",
        "last_observation_date": "2011-10-03",
        "data_arc_in_days": 3,
        "observations_used": 37,
        "orbit_uncertainty": "8",
        "minimum_orbit_intersection": ".0181508",
        "jupiter_tisserand_invariant": "3.063",
        "epoch_osculation": "2455836.5",
        "eccentricity": ".6538091981789127",
        "semi_major_axis": "2.583812585645025",
        "inclination": "10.29775380891075",
        "ascending_node_longitude": "5.404672042121757",
        "orbital_period": "1517.015229943948",
        "perihelion_distance": ".8944921507798681",
        "perihelion_argument": "309.8343546290566",
        "aphelion_distance": "4.273133020510183",
        "perihelion_time": "2455795.223051992602",
        "mean_anomaly": "9.795354054034332",
        "mean_motion": ".2373080987547511",
        "equinox": "J2000",
        "orbit_class": {
            "orbit_class_type": "APO",
            "orbit_class_description": "Near-Earth asteroid orbits which cross the Earth’s orbit similar to that of 1862 Apollo",
            "orbit_class_range": "a (semi-major axis) > 1.0 AU; q (perihelion) < 1.017 AU"
        }
    },
    "is_sentry_object": false
}